CTC1_L_00500001-01
1 22165U 24999OH  26070.40837963  .00000000  00000+0  00000-0 0  9993
2 22165 101.0000   0.0000 0000000   0.0000   0.0000 12.65579349    12
CTC1_L_00500001-02
1 22166U 25237ZQ  26070.40837963  .00000000  00000+0  00000-0 0  9990
2 22166 101.0000   0.0000 0000000   0.0000  45.0000 12.65579349    12
CTC1_L_00500001-03
1 22167U 26918AT  26070.40837963  .00000000  00000+0  00000-0 0  9998
2 22167 101.0000   0.0000 0000000   0.0000  90.0000 12.65579349    13
CTC1_L_00500001-04
1 22168U 25886YL  26070.40837963  .00000000  00000+0  00000-0 0  9992
2 22168 101.0000   0.0000 0000000   0.0000 135.0000 12.65579349    14
CTC1_L_00500001-05
1 22169U 23044AE  26070.40837963  .00000000  00000+0  00000-0 0  9997
2 22169 101.0000   0.0000 0000000   0.0000 180.0000 12.65579349    15
CTC1_L_00500001-06
1 22170U 23911NX  26070.40837963  .00000000  00000+0  00000-0 0  9992
2 22170 101.0000   0.0000 0000000   0.0000 225.0000 12.65579349    17
CTC1_L_00500001-07
1 22171U 23153BG  26070.40837963  .00000000  00000+0  00000-0 0  9991
2 22171 101.0000   0.0000 0000000   0.0000 270.0000 12.65579349    18
CTC1_L_00500001-08
1 22172U 22332TL  26070.40837963  .00000000  00000+0  00000-0 0  9990
2 22172 101.0000   0.0000 0000000   0.0000 315.0000 12.65579349    19
CTC1_L_00500002-01
1 22173U 22776LM  26070.40837963  .00000000  00000+0  00000-0 0  9993
2 22173 101.0000  12.0000 0000000   0.0000   6.0000 12.65579349    10
CTC1_L_00500002-02
1 22174U 26081ZS  26070.40837963  .00000000  00000+0  00000-0 0  9997
2 22174 101.0000  12.0000 0000000   0.0000  51.0000 12.65579349    11
CTC1_L_00500002-03
1 22175U 23891VI  26070.40837963  .00000000  00000+0  00000-0 0  9994
2 22175 101.0000  12.0000 0000000   0.0000  96.0000 12.65579349    11
CTC1_L_00500002-04
1 22176U 23601PJ  26070.40837963  .00000000  00000+0  00000-0 0  9994
2 22176 101.0000  12.0000 0000000   0.0000 141.0000 12.65579349    13
CTC1_L_00500002-05
1 22177U 22536KF  26070.40837963  .00000000  00000+0  00000-0 0  9991
2 22177 101.0000  12.0000 0000000   0.0000 186.0000 12.65579349    13
CTC1_L_00500002-06
1 22178U 22592XH  26070.40837963  .00000000  00000+0  00000-0 0  9994
2 22178 101.0000  12.0000 0000000   0.0000 231.0000 12.65579349    15
CTC1_L_00500002-07
1 22179U 25980VF  26070.40837963  .00000000  00000+0  00000-0 0  9999
2 22179 101.0000  12.0000 0000000   0.0000 276.0000 12.65579349    15
CTC1_L_00500002-08
1 22180U 22723HV  26070.40837963  .00000000  00000+0  00000-0 0  9993
2 22180 101.0000  12.0000 0000000   0.0000 321.0000 12.65579349    18
CTC1_L_00500003-01
1 22181U 22374IH  26070.40837963  .00000000  00000+0  00000-0 0  9996
2 22181 101.0000  24.0000 0000000   0.0000  12.0000 12.65579349    19
CTC1_L_00500003-02
1 22182U 26597CK  26070.40837963  .00000000  00000+0  00000-0 0  9998
2 22182 101.0000  24.0000 0000000   0.0000  57.0000 12.65579349    19
CTC1_L_00500003-03
1 22183U 22274AC  26070.40837963  .00000000  00000+0  00000-0 0  9997
2 22183 101.0000  24.0000 0000000   0.0000 102.0000 12.65579349    11
CTC1_L_00500003-04
1 22184U 24670JL  26070.40837963  .00000000  00000+0  00000-0 0  9990
2 22184 101.0000  24.0000 0000000   0.0000 147.0000 12.65579349    11
CTC1_L_00500003-05
1 22185U 22337DH  26070.40837963  .00000000  00000+0  00000-0 0  9999
2 22185 101.0000  24.0000 0000000   0.0000 192.0000 12.65579349    12
CTC1_L_00500003-06
1 22186U 26662TQ  26070.40837963  .00000000  00000+0  00000-0 0  9995
2 22186 101.0000  24.0000 0000000   0.0000 237.0000 12.65579349    13
CTC1_L_00500003-07
1 22187U 24598CI  26070.40837963  .00000000  00000+0  00000-0 0  9992
2 22187 101.0000  24.0000 0000000   0.0000 282.0000 12.65579349    14
CTC1_L_00500003-08
1 22188U 25475BQ  26070.40837963  .00000000  00000+0  00000-0 0  9998
2 22188 101.0000  24.0000 0000000   0.0000 327.0000 12.65579349    15
CTC1_L_00500004-01
1 22189U 24450YC  26070.40837963  .00000000  00000+0  00000-0 0  9991
2 22189 101.0000  36.0000 0000000   0.0000  18.0000 12.65579349    16
CTC1_L_00500004-02
1 22190U 26206P   26070.40837963  .00000000  00000+0  00000-0 0  9994
2 22190 101.0000  36.0000 0000000   0.0000  63.0000 12.65579349    18
CTC1_L_00500004-03
1 22191U 24653CT  26070.40837963  .00000000  00000+0  00000-0 0  9999
2 22191 101.0000  36.0000 0000000   0.0000 108.0000 12.65579349    19
CTC1_L_00500004-04
1 22192U 22122KQ  26070.40837963  .00000000  00000+0  00000-0 0  9999
2 22192 101.0000  36.0000 0000000   0.0000 153.0000 12.65579349    10
CTC1_L_00500004-05
1 22193U 24456UF  26070.40837963  .00000000  00000+0  00000-0 0  9992
2 22193 101.0000  36.0000 0000000   0.0000 198.0000 12.65579349    10
CTC1_L_00500004-06
1 22194U 22401DY  26070.40837963  .00000000  00000+0  00000-0 0  9991
2 22194 101.0000  36.0000 0000000   0.0000 243.0000 12.65579349    12
CTC1_L_00500004-07
1 22195U 22175FJ  26070.40837963  .00000000  00000+0  00000-0 0  9990
2 22195 101.0000  36.0000 0000000   0.0000 288.0000 12.65579349    12
CTC1_L_00500004-08
1 22196U 22933PV  26070.40837963  .00000000  00000+0  00000-0 0  9993
2 22196 101.0000  36.0000 0000000   0.0000 333.0000 12.65579349    14
CTC1_L_00500005-01
1 22197U 24374AR  26070.40837963  .00000000  00000+0  00000-0 0  9995
2 22197 101.0000  48.0000 0000000   0.0000  24.0000 12.65579349    15
CTC1_L_00500005-02
1 22198U 25051UX  26070.40837963  .00000000  00000+0  00000-0 0  9999
2 22198 101.0000  48.0000 0000000   0.0000  69.0000 12.65579349    15
CTC1_L_00500005-03
1 22199U 24356IJ  26070.40837963  .00000000  00000+0  00000-0 0  9997
2 22199 101.0000  48.0000 0000000   0.0000 114.0000 12.65579349    17
CTC1_L_00500005-04
1 22200U 25952QO  26070.40837963  .00000000  00000+0  00000-0 0  9993
2 22200 101.0000  48.0000 0000000   0.0000 159.0000 12.65579349    19
CTC1_L_00500005-05
1 22201U 25234SG  26070.40837963  .00000000  00000+0  00000-0 0  9997
2 22201 101.0000  48.0000 0000000   0.0000 204.0000 12.65579349    11
CTC1_L_00500005-06
1 22202U 24874TI  26070.40837963  .00000000  00000+0  00000-0 0  9997
2 22202 101.0000  48.0000 0000000   0.0000 249.0000 12.65579349    11
CTC1_L_00500005-07
1 22203U 23183C   26070.40837963  .00000000  00000+0  00000-0 0  9990
2 22203 101.0000  48.0000 0000000   0.0000 294.0000 12.65579349    12
CTC1_L_00500005-08
1 22204U 23909AA  26070.40837963  .00000000  00000+0  00000-0 0  9997
2 22204 101.0000  48.0000 0000000   0.0000 339.0000 12.65579349    13
CTC1_L_00500006-01
1 22205U 22789AY  26070.40837963  .00000000  00000+0  00000-0 0  9993
2 22205 101.0000  60.0000 0000000   0.0000  30.0000 12.65579349    16
CTC1_L_00500006-02
1 22206U 22805GG  26070.40837963  .00000000  00000+0  00000-0 0  9993
2 22206 101.0000  60.0000 0000000   0.0000  75.0000 12.65579349    16
CTC1_L_00500006-03
1 22207U 24944XH  26070.40837963  .00000000  00000+0  00000-0 0  9990
2 22207 101.0000  60.0000 0000000   0.0000 120.0000 12.65579349    18
CTC1_L_00500006-04
1 22208U 24428YM  26070.40837963  .00000000  00000+0  00000-0 0  9998
2 22208 101.0000  60.0000 0000000   0.0000 165.0000 12.65579349    18
CTC1_L_00500006-05
1 22209U 23089SS  26070.40837963  .00000000  00000+0  00000-0 0  9991
2 22209 101.0000  60.0000 0000000   0.0000 210.0000 12.65579349    10
CTC1_L_00500006-06
1 22210U 24821QL  26070.40837963  .00000000  00000+0  00000-0 0  9998
2 22210 101.0000  60.0000 0000000   0.0000 255.0000 12.65579349    11
CTC1_L_00500006-07
1 22211U 24766UF  26070.40837963  .00000000  00000+0  00000-0 0  9997
2 22211 101.0000  60.0000 0000000   0.0000 300.0000 12.65579349    13
CTC1_L_00500006-08
1 22212U 23243YM  26070.40837963  .00000000  00000+0  00000-0 0  9997
2 22212 101.0000  60.0000 0000000   0.0000 345.0000 12.65579349    13
CTC1_L_00500007-01
1 22213U 23745QG  26070.40837963  .00000000  00000+0  00000-0 0  9995
2 22213 101.0000  72.0000 0000000   0.0000  36.0000 12.65579349    14
CTC1_L_00500007-02
1 22214U 23746SJ  26070.40837963  .00000000  00000+0  00000-0 0  9997
2 22214 101.0000  72.0000 0000000   0.0000  81.0000 12.65579349    15
CTC1_L_00500007-03
1 22215U 26246FR  26070.40837963  .00000000  00000+0  00000-0 0  9996
2 22215 101.0000  72.0000 0000000   0.0000 126.0000 12.65579349    16
CTC1_L_00500007-04
1 22216U 24818JM  26070.40837963  .00000000  00000+0  00000-0 0  9990
2 22216 101.0000  72.0000 0000000   0.0000 171.0000 12.65579349    17
CTC1_L_00500007-05
1 22217U 24305JZ  26070.40837963  .00000000  00000+0  00000-0 0  9992
2 22217 101.0000  72.0000 0000000   0.0000 216.0000 12.65579349    18
CTC1_L_00500007-06
1 22218U 23801JJ  26070.40837963  .00000000  00000+0  00000-0 0  9993
2 22218 101.0000  72.0000 0000000   0.0000 261.0000 12.65579349    19
CTC1_L_00500007-07
1 22219U 22113SS  26070.40837963  .00000000  00000+0  00000-0 0  9999
2 22219 101.0000  72.0000 0000000   0.0000 306.0000 12.65579349    10
CTC1_L_00500007-08
1 22220U 26950NW  26070.40837963  .00000000  00000+0  00000-0 0  9994
2 22220 101.0000  72.0000 0000000   0.0000 351.0000 12.65579349    12
CTC1_L_00500008-01
1 22221U 24098XZ  26070.40837963  .00000000  00000+0  00000-0 0  9996
2 22221 101.0000  84.0000 0000000   0.0000  42.0000 12.65579349    13
CTC1_L_00500008-02
1 22222U 25829XJ  26070.40837963  .00000000  00000+0  00000-0 0  9990
2 22222 101.0000  84.0000 0000000   0.0000  87.0000 12.65579349    13
CTC1_L_00500008-03
1 22223U 23416KF  26070.40837963  .00000000  00000+0  00000-0 0  9991
2 22223 101.0000  84.0000 0000000   0.0000 132.0000 12.65579349    15
CTC1_L_00500008-04
1 22224U 23587IQ  26070.40837963  .00000000  00000+0  00000-0 0  9991
2 22224 101.0000  84.0000 0000000   0.0000 177.0000 12.65579349    15
CTC1_L_00500008-05
1 22225U 22035ZD  26070.40837963  .00000000  00000+0  00000-0 0  9999
2 22225 101.0000  84.0000 0000000   0.0000 222.0000 12.65579349    17
CTC1_L_00500008-06
1 22226U 23289TB  26070.40837963  .00000000  00000+0  00000-0 0  9992
2 22226 101.0000  84.0000 0000000   0.0000 267.0000 12.65579349    17
